[{"OBJECT_NAME":"STARLINK-5775","OBJECT_ID":"2023-065A","EPOCH":"2026-03-09T22:00:01.999584","MEAN_MOTION":15.09198788,"ECCENTRICITY":0.00017267,"INCLINATION":42.9992,"RA_OF_ASC_NODE":209.3246,"ARG_OF_PERICENTER":292.9009,"MEAN_ANOMALY":165.8847,"EPHEMERIS_TYPE":0,"CLASSIFICATION_TYPE":"U","NORAD_CAT_ID":56503,"ELEMENT_SET_NO":999,"REV_AT_EPOCH":578,"BSTAR":0.0043379687,"MEAN_MOTION_DOT":0.00070628,"MEAN_MOTION_DDOT":0},{"OBJECT_NAME":"FENGYUN 1C DEB","OBJECT_ID":"1999-025CDM","EPOCH":"2026-03-09T06:24:55.905408","MEAN_MOTION":15.0430028,"ECCENTRICITY":0.00202824,"INCLINATION":99.0326,"RA_OF_ASC_NODE":346.4521,"ARG_OF_PERICENTER":26.5298,"MEAN_ANOMALY":133.8427,"EPHEMERIS_TYPE":0,"CLASSIFICATION_TYPE":"U","NORAD_CAT_ID":31714,"ELEMENT_SET_NO":999,"REV_AT_EPOCH":97342,"BSTAR":0.0098433176,"MEAN_MOTION_DOT":0.00140271,"MEAN_MOTION_DDOT":0}]
